NSS-11                  
1 26554U 00059A   26199.72851712  .00000017  00000+0  00000+0 0  9992
2 26554   2.2063  81.0162 0003031  45.0821 248.6862  1.00272209 41602
AMC-6                   
1 26580U 00067A   26199.73813716  .00000082  00000+0  00000+0 0  9995
2 26580   0.2309  83.8130 0003979  46.2628 297.1309  1.00271627 94208
AMC-15                  
1 28446U 04041A   26199.58308632 -.00000096  00000+0  00000+0 0  9999
2 28446   0.0418 284.7190 0002293 189.5733 286.9462  1.00271569 79613
NSS-10                  
1 28526U 05003A   26199.47236876 -.00000262  00000+0  00000+0 0  9990
2 28526   6.5266  70.0708 0002776  43.0537 315.7453  1.00272225 53463
ASTRA 1KR               
1 29055U 06012A   26199.91611126  .00000112  00000+0  00000+0 0  9996
2 29055   0.5540  83.1890 0003436  26.8684 175.4414  1.00272468 46013
ASTRA 1L                
1 31306U 07016A   26199.76006392 -.00000192  00000+0  00000+0 0  9998
2 31306   1.4015  81.3240 0005364  36.0888  68.2515  1.00270913 45307
ASTRA 4A                
1 32299U 07057A   26199.79072490  .00000026  00000+0  00000+0 0  9995
2 32299   0.0514 271.4816 0002546 211.3654 103.1926  1.00272726 51965
ASTRA 1M                
1 33436U 08057A   26199.91724057  .00000114  00000+0  00000+0 0  9995
2 33436   0.3762  82.8381 0004612  43.0651 160.3768  1.00271535 46051
NSS-9                   
1 33749U 09008A   26199.72990378  .00000065  00000+0  00000+0 0  9994
2 33749   1.3415  82.3470 0002001  23.5907 276.4282  1.00273549 63837
SES-7 (PROTOSTAR 2)     
1 34941U 09027A   26199.89030860 -.00000351  00000+0  00000+0 0  9998
2 34941   0.0173  58.4490 0000307 163.0885 143.8920  1.00270188 62940
NSS-12                  
1 36032U 09058A   26199.94860187  .00000066  00000+0  00000+0 0  9996
2 36032   0.0825 269.3429 0004896 171.8563 254.0240  1.00272291 61237
SES-1                   
1 36516U 10016A   26199.58308632 -.00000121  00000+0  00000+0 0  9994
2 36516   0.0555 270.5003 0002516 201.4159 293.3723  1.00271944 59349
ASTRA 3B                
1 36581U 10021A   26199.93111904  .00000130  00000+0  00000+0 0  9994
2 36581   1.5485  83.1635 0004311  25.0629 187.1922  1.00271864 59189
SES-3                   
1 37748U 11035A   26199.58308632 -.00000110  00000+0  00000+0 0  9992
2 37748   1.4060  82.7413 0002093  34.7091 285.8525  1.00271687 54900
ASTRA 1N                
1 37775U 11041A   26199.91724086  .00000113  00000+0  00000+0 0  9993
2 37775   0.0632  17.7779 0005908  98.2843 170.0262  1.00271684 44843
SES-2                   
1 37809U 11049A   26199.57753144 -.00000203  00000+0  00000+0 0  9999
2 37809   0.1367  90.8758 0002771  23.0942 303.3105  1.00271814 54277
QUETZSAT 1              
1 37826U 11054A   26199.62891936 -.00000249  00000+0  00000+0 0  9992
2 37826   0.0446 269.5616 0002783 211.9338 324.3413  1.00271964 50199
SES-4                   
1 38087U 12007A   26199.76225269 -.00000175  00000+0  00000+0 0  9994
2 38087   0.0226  33.6331 0002505  87.7248  67.6224  1.00272185 52544
SES-5                   
1 38652U 12036A   26199.79072490  .00000027  00000+0  00000+0 0  9998
2 38652   0.0441 320.2838 0001936 158.3335 107.6017  1.00272341 44772
ASTRA 2F                
1 38778U 12051A   26199.92515300  .00000144  00000+0  00000+0 0  9991
2 38778   0.0789 254.7705 0003089 287.3801 115.7702  1.00271522 41455
SES-6                   
1 39172U 13026A   26199.79697495 -.00000268  00000+0  00000+0 0  9992
2 39172   0.0174   2.0559 0002664  95.9164  85.0376  1.00272137 48047
O3B FM5                 
1 39188U 13031A   26199.22290259 -.00000025  00000+0  00000+0 0  9991
2 39188   0.0945 334.3720 0002796 127.6026 258.0529  5.00115655238595
O3B FM4                 
1 39189U 13031B   26198.54278254 -.00000025  00000+0  00000+0 0  9997
2 39189   0.0417 347.5698 0004908 111.4989 260.9828  5.00115644238565
O3B FM2                 
1 39190U 13031C   26199.60770248 -.00000024  00000+0  00000+0 0  9996
2 39190   0.0347 344.7720 0002712 128.2463 247.0065  5.00116072238686
O3B PFM                 
1 39191U 13031D   26198.42247966 -.00000025  00000+0  00000+0 0  9993
2 39191   0.0664 346.1906 0005254 117.9756 255.8882  5.00116182238186
ASTRA 2E                
1 39285U 13056A   26199.92507419  .00000144  00000+0  00000+0 0  9993
2 39285   0.0707 318.9333 0002601 154.2952 184.9746  1.00270777 46730
SES-8                   
1 39460U 13071A   26199.87683567 -.00000276  00000+0  00000+0 0  9995
2 39460   0.0469 250.8052 0002763 223.3006 233.2215  1.00271583 44743
ASTRA 5B                
1 39617U 14011B   26199.92060891  .00000130  00000+0  00000+0 0  9997
2 39617   0.0689 306.4473 0002030 179.1542 165.9804  1.00270214 44987
O3B FM3                 
1 40079U 14038A   26197.88950127 -.00000025  00000+0  00000+0 0  9997
2 40079   0.0477 352.7043 0002714 175.6558 191.6421  5.00115729214534
O3B FM7                 
1 40080U 14038B   26199.83453156 -.00000024  00000+0  00000+0 0  9995
2 40080   0.0448 344.0054 0003542 101.2136 274.8178  5.00115681219453
O3B FM6                 
1 40081U 14038C   26199.26183175 -.00000025  00000+0  00000+0 0  9995
2 40081   0.0462 349.7483 0002608 127.6440 242.6304  5.00115744219375
O3B FM8                 
1 40082U 14038D   26199.31506453 -.00000025  00000+0  00000+0 0  9990
2 40082   0.0457 348.4602 0002756 129.7813 241.7825  5.00116110219501
O3B FM10                
1 40348U 14083A   26197.74322066 -.00000025  00000+0  00000+0 0  9996
2 40348   0.0408 347.1886 0004802 114.2162 258.6450  5.00115529211373
O3B FM11                
1 40349U 14083B   26199.75475575 -.00000024  00000+0  00000+0 0  9993
2 40349   0.0551 350.9922 0002521 108.8128 260.2198  5.00115570211490
O3B FM12                
1 40350U 14083C   26199.58185169 -.00000024  00000+0  00000+0 0  9993
2 40350   0.0542 351.2968 0002484 122.8796 245.8458  5.00115987211491
O3B FM9                 
1 40351U 14083D   26199.20889747 -.00000025  00000+0  00000+0 0  9997
2 40351   0.0559 350.0973 0002672 124.2991 245.6276  5.00116021211626
ASTRA 2G                
1 40364U 14089A   26199.92395416  .00000143  00000+0  00000+0 0  9991
2 40364   0.0572  35.6101 0004541  41.3190 220.5814  1.00270479 42289
SES-9                   
1 41380U 16013A   26199.89016971 -.00000351  00000+0  00000+0 0  9993
2 41380   0.0168 334.1026 0002309 131.6012 259.7445  1.00272508 37753
SES-10                  
1 42432U 17017A   26199.75157056 -.00000279  00000+0  00000+0 0  9991
2 42432   0.0164  48.5114 0002656  71.3441  20.3604  1.00272108 34070
SES-15                  
1 42709U 17026A   26199.59419865  .00000053  00000+0  00000+0 0  9998
2 42709   0.0275 325.4278 0000419 131.0445 284.6731  1.00268239  7741
SES-11 (ECHOSTAR 105)   
1 42967U 17063A   26199.58308632 -.00000096  00000+0  00000+0 0  9991
2 42967   0.0274 317.0034 0002789 148.6753 295.6540  1.00271474 32036
SES-14                  
1 43175U 18012B   26199.79697495 -.00000285  00000+0  00000+0 0  9999
2 43175   0.0123  31.1610 0000939  77.5010  67.3309  1.00271571  7347
O3B FM15                
1 43231U 18024A   26199.27571626 -.00000025  00000+0  00000+0 0  9997
2 43231   0.0530 359.4820 0002595 115.5727 244.9685  5.00115832152587
O3B FM16                
1 43232U 18024B   26199.72781825 -.00000024  00000+0  00000+0 0  9991
2 43232   0.0536   3.7670 0002610 110.9316 245.3249  5.00115995152511
O3B FM14                
1 43233U 18024C   26199.36885568 -.00000025  00000+0  00000+0 0  9992
2 43233   0.0524   5.0276 0002868 110.5541 244.4441  5.00115764152515
O3B FM13                
1 43234U 18024D   26196.23648676 -.00000024  00000+0  00000+0 0  9992
2 43234   0.0539 323.2184 0001930  92.4344 304.3616  5.00115602152468
SES-12                  
1 43488U 18049A   26199.89628019 -.00000275  00000+0  00000+0 0  9992
2 43488   0.0111  12.4358 0000755 250.3920  91.5198  1.00270392 29731
O3B FM20                
1 44112U 19020A   26199.39492173 -.00000025  00000+0  00000+0 0  9995
2 44112   0.0527 355.6966 0002346 113.6797 250.6452  5.00115635133127
O3B FM19                
1 44113U 19020B   26197.22314243 -.00000024  00000+0  00000+0 0  9996
2 44113   0.0665 346.3645 0005369 122.3099 251.3799  5.00115985132895
O3B FM17                
1 44114U 19020C   26199.50210787 -.00000025  00000+0  00000+0 0  9999
2 44114   0.0372  11.7492 0002571 103.7197 244.5539  5.00115623133085
O3B FM18                
1 44115U 19020D   26199.44845243 -.00000025  00000+0  00000+0 0  9994
2 44115   0.0532 355.6674 0002757 120.9689 243.3882  5.00115389133211
SES-17                  
1 49332U 21095A   26199.75165722 -.00000279  00000+0  00000+0 0  9997
2 49332   0.0243  52.1324 0000938  60.8166  27.0884  1.00269712 18170
SES-22                  
1 52933U 22071A   26199.73735715  .00000098  00000+0  00000+0 0  9994
2 52933   0.0435 248.8450 0000925 220.0811 314.0409  1.00272743  7832
SES-20                  
1 53960U 22123A   26199.58308632 -.00000108  00000+0  00000+0 0  9993
2 53960   0.0163  69.7220 0001951  23.5726 309.8883  1.00269396 13843
SES-21                  
1 53961U 22123B   26199.59419865  .00000000  00000+0  00000+0 0  9996
2 53961   0.0363  38.8483 0000963  85.2390 255.3142  1.00270270  7522
O3B MPOWER F1           
1 54755U 22174A   26199.43129782 -.00000025  00000+0  00000+0 0  9991
2 54755   0.0489 339.1938 0006656 148.2099  61.5741  5.00114734 66923
O3B MPOWER F2           
1 54756U 22174B   26199.29310988 -.00000025  00000+0  00000+0 0  9996
2 54756   0.0448 339.8103 0005778 131.4187 248.8289  5.00114905 67003
SES-18                  
1 55970U 23038A   26199.58308632 -.00000108  00000+0  00000+0 0  9992
2 55970   0.0452 246.7102 0000785 311.4766 205.0011  1.00270613 12416
SES-19                  
1 55971U 23038B   26199.73822383  .00000081  00000+0  00000+0 0  9993
2 55971   0.0481 266.4937 0001706 215.4928 305.3900  1.00272089 12400
O3B MPOWER F4           
1 56367U 23059A   26199.75711674 -.00000024  00000+0  00000+0 0  9996
2 56367   0.0628 349.4037 0007734 130.7285 239.9408  5.00115375 60189
O3B MPOWER F3           
1 56368U 23059B   26199.39046131 -.00000025  00000+0  00000+0 0  9997
2 56368   0.0635 348.6625 0006658 124.5314 246.8725  5.00116415 56292
O3B MPOWER F5           
1 58346U 23175A   26199.09168032 -.00000025  00000+0  00000+0 0  9996
2 58346   0.0526   8.9283 0005538 125.8019 225.3110  5.00115871 50982
O3B MPOWER F6           
1 58347U 23175B   26199.59193916 -.00000025  00000+0  00000+0 0  9991
2 58347   0.0543   0.5051 0004431 115.4265 244.1103  5.00115793 49928
ASTRA 1P (SES-24)       
1 60086U 24115A   26199.69744731  .00000112  00000+0  00000+0 0  9993
2 60086   0.0667 329.2025 0000749 223.3508  14.2209  1.00266904  7516
O3B MPOWER F7           
1 62362U 24244A   26199.45845290 -.00000025  00000+0  00000+0 0  9995
2 62362   0.0657 342.2007 0005928 130.4754 247.3828  5.00115336 28081
O3B MPOWER F8           
1 62363U 24244B   26199.42540529 -.00000025  00000+0  00000+0 0  9990
2 62363   0.0148   8.1103 0005723  97.3760 254.5731  5.00115021 22430
O3B MPOWER F9           
1 64866U 25153A   26199.75856234 -.00000024  00000+0  00000+0 0  9998
2 64866   0.0617   5.0328 0006763 130.0862 224.9321  5.00115688 21141
O3B MPOWER F10          
1 64867U 25153B   26199.72462218 -.00000024  00000+0  00000+0 0  9991
2 64867   0.0587   1.6364 0002505 246.0743 112.2590  5.00114893 23603
